NORAD_CAT_ID,OBJECT_NAME,OBJECT_TYPE,EPOCH,MEAN_MOTION,ECCENTRICITY,INCLINATION,RA_OF_ASC_NODE,ARG_OF_PERICENTER,MEAN_ANOMALY,BSTAR,MEAN_MOTION_DOT,MEAN_MOTION_DDOT,TLE_LINE0,TLE_LINE1,TLE_LINE2,SEMIMAJOR_AXIS,PERIOD,APOGEE,PERIGEE,DECAYED
55402.0,STARLINK-5071,PAYLOAD,2024-02-14 12:01:23,14.98318267,0.0001866,70.0014,166.1008,244.1415,115.9551,0.00019403,2.222e-05,0.0,0 STARLINK-5071,1 55402U 23014M   24045.50096717  .00002222  00000-0  19403-3 0  9994,2 55402  70.0014 166.1008 0001866 244.1415 115.9551 14.98318267 58148,6950.229,96.108,573.391,570.797,0.0
55402.0,STARLINK-5071,PAYLOAD,2024-02-14 13:37:31,14.98312597,0.0001927,70.0016,165.9325,245.8799,114.2159,0.00030367,3.531e-05,0.0,0 STARLINK-5071,1 55402U 23014M   24045.56772840  .00003531  00000-0  30367-3 0  9994,2 55402  70.0016 165.9325 0001927 245.8799 114.2159 14.98312597 59091,6950.247,96.108,573.451,570.772,0.0
55402.0,STARLINK-5071,PAYLOAD,2024-02-14 18:25:55,14.98327411,0.0001663,70.0018,165.4266,234.7825,125.3179,0.00016654,1.895e-05,0.0,0 STARLINK-5071,1 55402U 23014M   24045.76800318  .00001895  00000-0  16654-3 0  9992,2 55402  70.0018 165.4266 0001663 234.7825 125.3179 14.98327411 58181,6950.201,96.107,573.222,570.91,0.0
55402.0,STARLINK-5071,PAYLOAD,2024-02-15 12:03:24,14.98325356,0.0002583,70.0017,163.5751,272.3495,87.7369,8.0948e-06,4e-08,0.0,0 STARLINK-5071,1 55402U 23014M   24046.50236797  .00000004  00000-0  80948-5 0  9999,2 55402  70.0017 163.5751 0002583 272.3495  87.7369 14.98325356 58291,6950.207,96.107,573.867,570.277,0.0
55402.0,STARLINK-5071,PAYLOAD,2024-02-15 16:51:48,14.98323849,0.0002589,70.0021,163.0716,267.962,92.1243,4.9682e-06,-3.4e-07,0.0,0 STARLINK-5071,1 55402U 23014M   24046.70264964 -.00000034  00000-0  49682-5 0  9992,2 55402  70.0021 163.0716 0002589 267.9620  92.1243 14.98323849 59262,6950.212,96.107,573.876,570.278,0.0
55402.0,STARLINK-5071,PAYLOAD,2024-02-16 12:05:25,14.98331115,0.0002868,70.0015,161.0521,270.3376,89.7454,3.3261e-05,3.04e-06,0.0,0 STARLINK-5071,1 55402U 23014M   24047.50376381  .00000304  00000-0  33261-4 0  9992,2 55402  70.0015 161.0521 0002868 270.3376  89.7454 14.98331115 58443,6950.189,96.107,574.048,570.061,0.0
55402.0,STARLINK-5071,PAYLOAD,2024-02-16 13:41:33,14.98334341,0.0002871,70.0014,160.8838,267.1463,92.9368,4.3103e-05,4.21e-06,0.0,0 STARLINK-5071,1 55402U 23014M   24047.57052105  .00000421  00000-0  43103-4 0  9990,2 55402  70.0014 160.8838 0002871 267.1463  92.9368 14.98334341 59394,6950.179,96.107,574.04,570.049,0.0
55402.0,STARLINK-5071,PAYLOAD,2024-02-16 16:53:49,14.98335368,0.0002806,70.0015,160.5471,263.7289,96.3551,3.5523e-05,3.31e-06,0.0,0 STARLINK-5071,1 55402U 23014M   24047.70404008  .00000331  00000-0  35523-4 0  9995,2 55402  70.0015 160.5471 0002806 263.7289  96.3551 14.98335368 59416,6950.176,96.107,573.992,570.091,0.0
55402.0,STARLINK-5071,PAYLOAD,2024-02-17 12:07:27,14.98319135,0.000307,70.0015,158.5274,271.5907,88.49,-3.7605e-06,-1.38e-06,0.0,0 STARLINK-5071,1 55402U 23014M   24048.50517376 -.00000138  00000-0 -37605-5 0  9998,2 55402  70.0015 158.5274 0003070 271.5907  88.4900 14.98319135 58594,6950.226,96.108,574.225,569.958,0.0
55402.0,STARLINK-5071,PAYLOAD,2024-02-17 13:43:34,14.98323149,0.0003082,70.0012,158.3585,270.3773,89.7032,-1.8966e-06,-1.16e-06,0.0,0 STARLINK-5071,1 55402U 23014M   24048.57193124 -.00000116  00000-0 -18966-5 0  9991,2 55402  70.0012 158.3585 0003082 270.3773  89.7032 14.98323149 59541,6950.214,96.107,574.221,569.937,0.0
55402.0,STARLINK-5071,PAYLOAD,2024-02-17 16:55:50,14.9832452,0.0003076,70.0012,158.0222,270.5917,89.489,2.222e-05,1.72e-06,0.0,0 STARLINK-5071,1 55402U 23014M   24048.70545038  .00000172  00000-0  22220-4 0  9998,2 55402  70.0012 158.0222 0003076 270.5917  89.4890 14.98324520 59566,6950.21,96.107,574.213,569.937,0.0
55402.0,STARLINK-5071,PAYLOAD,2024-02-18 00:56:30,14.98331738,0.0003187,70.0007,157.1789,270.968,89.1114,2.2589e-05,1.77e-06,0.0,0 STARLINK-5071,1 55402U 23014M   24049.03924581  .00000177  00000-0  22589-4 0  9992,2 55402  70.0007 157.1789 0003187 270.9680  89.1114 14.98331738 58678,6950.188,96.107,574.268,569.837,0.0
55402.0,STARLINK-5071,PAYLOAD,2024-02-18 13:45:34,14.98338831,0.0003107,70.0007,155.8332,270.683,89.3973,0.00014021,1.581e-05,0.0,0 STARLINK-5071,1 55402U 23014M   24049.57331683  .00001581  00000-0  14021-3 0  9997,2 55402  70.0007 155.8332 0003107 270.6830  89.3973 14.98338831 59692,6950.166,96.106,574.19,569.871,0.0
55402.0,STARLINK-5071,PAYLOAD,2024-02-18 16:57:50,14.98344213,0.0003115,70.0007,155.4965,271.1971,88.8832,0.00012346,1.381e-05,0.0,0 STARLINK-5071,1 55402U 23014M   24049.70683303  .00001381  00000-0  12346-3 0  9997,2 55402  70.0007 155.4965 0003115 271.1971  88.8832 14.98344213 58778,6950.149,96.106,574.179,569.849,0.0
55402.0,STARLINK-5071,PAYLOAD,2024-02-19 10:35:20,14.9832474,0.0003296,70.0003,153.6447,272.9516,87.1265,-1.2065e-05,-2.37e-06,0.0,0 STARLINK-5071,1 55402U 23014M   24050.44121002 -.00000237  00000-0 -12065-4 0  9993,2 55402  70.0003 153.6447 0003296 272.9516  87.1265 14.98324740 58880,6950.209,96.107,574.365,569.783,0.0
55402.0,STARLINK-5071,PAYLOAD,2024-02-19 13:47:36,14.98324445,0.0002952,70.001,153.3101,264.8839,95.1983,7.0186e-06,-9e-08,0.0,0 STARLINK-5071,1 55402U 23014M   24050.57472963 -.00000009  00000-0  70186-5 0  9997,2 55402  70.0010 153.3101 0002952 264.8839  95.1983 14.98324445 59843,6950.21,96.107,574.127,570.023,0.0
55402.0,STARLINK-5071,PAYLOAD,2024-02-19 16:59:52,14.98328045,0.0003198,70.0005,152.9716,270.6769,89.4024,2.0793e-05,1.55e-06,0.0,0 STARLINK-5071,1 55402U 23014M   24050.70824744  .00000155  00000-0  20793-4 0  9999,2 55402  70.0005 152.9716 0003198 270.6769  89.4024 14.98328045 59868,6950.199,96.107,574.287,569.841,0.0
55402.0,STARLINK-5071,PAYLOAD,2024-02-20 12:13:29,14.98333757,0.0003025,70.0009,150.9529,270.4434,89.6378,-1.9055e-05,-3.2e-06,0.0,0 STARLINK-5071,1 55402U 23014M   24051.50936469 -.00000320  00000-0 -19055-4 0  9991,2 55402  70.0009 150.9529 0003025 270.4434  89.6378 14.98333757 59048,6950.181,96.107,574.149,569.944,0.0
55402.0,STARLINK-5071,PAYLOAD,2024-02-20 13:49:36,14.98337067,0.0002929,70.0008,150.7849,266.5677,93.5147,-1.4445e-05,-2.65e-06,0.0,0 STARLINK-5071,1 55402U 23014M   24051.57612205 -.00000265  00000-0 -14445-4 0  9993,2 55402  70.0008 150.7849 0002929 266.5677  93.5147 14.98337067 59997,6950.171,96.107,574.072,570.0,0.0
55402.0,STARLINK-5071,PAYLOAD,2024-02-20 17:01:52,14.98340394,0.0002962,70.0008,150.4485,266.9921,93.0899,2.7164e-08,-9.3e-07,0.0,0 STARLINK-5071,1 55402U 23014M   24051.70963883 -.00000093  00000-0  27164-7 0  9992,2 55402  70.0008 150.4485 0002962 266.9921  93.0899 14.98340394 60014,6950.161,96.106,574.084,569.967,0.0
55402.0,STARLINK-5071,PAYLOAD,2024-02-21 12:15:29,14.98329267,0.0002866,70.001,148.4285,268.4145,91.6685,7.0311e-05,7.46e-06,0.0,0 STARLINK-5071,1 55402U 23014M   24052.51076302  .00000746  00000-0  70311-4 0  9996,2 55402  70.0010 148.4285 0002866 268.4145  91.6685 14.98329267 59190,6950.195,96.107,574.052,570.068,0.0
55402.0,STARLINK-5071,PAYLOAD,2024-02-21 13:51:37,14.98330624,0.0002851,70.0009,148.26,269.4645,90.6188,8.2097e-05,8.87e-06,0.0,0 STARLINK-5071,1 55402U 23014M   24052.57752177  .00000887  00000-0  82097-4 0  9993,2 55402  70.0009 148.2600 0002851 269.4645  90.6188 14.98330624 60140,6950.191,96.107,574.037,570.074,0.0
55402.0,STARLINK-5071,PAYLOAD,2024-02-21 15:27:45,14.98331579,0.0002844,70.001,148.0917,269.7857,90.2976,9.0739e-05,9.9e-06,0.0,0 STARLINK-5071,1 55402U 23014M   24052.64428090  .00000990  00000-0  90739-4 0  9992,2 55402  70.0010 148.0917 0002844 269.7857  90.2976 14.98331579 60153,6950.188,96.107,574.03,570.076,0.0
55402.0,STARLINK-5071,PAYLOAD,2024-02-22 12:17:31,14.98329494,0.0002722,70.001,145.9031,266.9002,93.1846,-4.0878e-05,-5.81e-06,0.0,0 STARLINK-5071,1 55402U 23014M   24053.51216508 -.00000581  00000-0 -40878-4 0  9995,2 55402  70.0010 145.9031 0002722 266.9002  93.1846 14.98329494 59342,6950.194,96.107,573.951,570.168,0.0
55402.0,STARLINK-5071,PAYLOAD,2024-02-22 13:53:39,14.98329705,0.0002715,70.001,145.7348,266.7666,93.3182,-3.7581e-05,-5.41e-06,0.0,0 STARLINK-5071,1 55402U 23014M   24053.57892484 -.00000541  00000-0 -37581-4 0  9997,2 55402  70.0010 145.7348 0002715 266.7666  93.3182 14.98329705 60293,6950.194,96.107,573.946,570.172,0.0
55402.0,STARLINK-5071,PAYLOAD,2024-02-22 15:29:47,14.98330507,0.0002712,70.0011,145.5665,266.8333,93.2516,-2.8155e-05,-4.29e-06,0.0,0 STARLINK-5071,1 55402U 23014M   24053.64568403 -.00000429  00000-0 -28155-4 0  9998,2 55402  70.0011 145.5665 0002712 266.8333  93.2516 14.98330507 60307,6950.191,96.107,573.941,570.171,0.0
55402.0,STARLINK-5071,PAYLOAD,2024-02-23 12:19:31,14.98332528,0.0002779,70.0007,143.3775,265.5394,94.5448,1.3784e-05,7.2e-07,0.0,0 STARLINK-5071,1 55402U 23014M   24054.51356059  .00000072  00000-0  13784-4 0  9991,2 55402  70.0007 143.3775 0002779 265.5394  94.5448 14.98332528 59497,6950.185,96.107,573.982,570.119,0.0
55402.0,STARLINK-5071,PAYLOAD,2024-02-23 13:55:39,14.98331103,0.0002809,70.0007,143.209,265.0013,95.0826,-8.7591e-07,-1.03e-06,0.0,0 STARLINK-5071,1 55402U 23014M   24054.58032187 -.00000103  00000-0 -87591-6 0  9997,2 55402  70.0007 143.2090 0002809 265.0013  95.0826 14.98331103 60444,6950.189,96.107,574.007,570.102,0.0
55402.0,STARLINK-5071,PAYLOAD,2024-02-23 15:31:47,14.98331622,0.0002806,70.0007,143.0407,265.1362,94.9476,5.0675e-06,-3.2e-07,0.0,0 STARLINK-5071,1 55402U 23014M   24054.64708135 -.00000032  00000-0  50675-5 0  9999,2 55402  70.0007 143.0407 0002806 265.1362  94.9476 14.98331622 60455,6950.188,96.107,574.003,570.103,0.0
55402.0,STARLINK-5071,PAYLOAD,2024-02-24 12:21:31,14.98338705,0.0002886,70.0006,140.8534,269.835,90.2478,0.00013501,1.519e-05,0.0,0 STARLINK-5071,1 55402U 23014M   24055.51495133  .00001519  00000-0  13501-3 0  9992,2 55402  70.0006 140.8534 0002886 269.8350  90.2478 14.98338705 59645,6950.166,96.106,574.037,570.025,0.0
